[{"OBJECT_NAME":"AETHER-2","OBJECT_ID":"2023-174AV","EPOCH":"2026-03-09T17:13:49.792224","MEAN_MOTION":15.33264165,"ECCENTRICITY":0.00086301,"INCLINATION":97.3931,"RA_OF_ASC_NODE":151.9008,"ARG_OF_PERICENTER":139.5247,"MEAN_ANOMALY":220.6639,"EPHEMERIS_TYPE":0,"CLASSIFICATION_TYPE":"U","NORAD_CAT_ID":58299,"ELEMENT_SET_NO":999,"REV_AT_EPOCH":12998,"BSTAR":0.00026165949,"MEAN_MOTION_DOT":8.341e-5,"MEAN_MOTION_DDOT":0},{"OBJECT_NAME":"STARLINK-31330","OBJECT_ID":"2024-027W","EPOCH":"2026-03-09T22:10:48.759744","MEAN_MOTION":15.30186191,"ECCENTRICITY":0.00011314,"INCLINATION":53.1607,"RA_OF_ASC_NODE":305.7526,"ARG_OF_PERICENTER":84.7724,"MEAN_ANOMALY":275.3406,"EPHEMERIS_TYPE":0,"CLASSIFICATION_TYPE":"U","NORAD_CAT_ID":58951,"ELEMENT_SET_NO":999,"REV_AT_EPOCH":11740,"BSTAR":4.6377279e-5,"MEAN_MOTION_DOT":1.014e-5,"MEAN_MOTION_DDOT":0}]
